GLOBALSTAR M063         
1 26081U 00008A   25229.49339411 -.00000060  00000+0  33864-3 0  9992
2 26081  51.9970 310.1168 0004883  79.5242 293.5095 11.86175306164857
GLOBALSTAR M062         
1 26082U 00008B   25229.12437843 -.00000056  00000+0  29944-3 0  9990
2 26082  51.9838 276.5874 0007127 239.3112 146.7172 12.43470140504206
GLOBALSTAR M060         
1 26083U 00008C   25229.48798039 -.00000080  00000+0  10763-3 0  9993
2 26083  51.9993 244.1963 0003344 249.5326 277.2608 12.17664465159831
GLOBALSTAR M064         
1 26084U 00008D   25229.53612037 -.00000098  00000+0 -21373-3 0  9992
2 26084  52.0042  48.1044 0001652 143.7375 216.3570 11.88535455174393
GLOBALSTAR M065         
1 31571U 07020A   25229.52291275 -.00000107  00000+0 -18043-4 0  9998
2 31571  51.9903  39.5789 0010914  84.6241 319.9019 12.62010494841157
GLOBALSTAR M069         
1 31573U 07020C   25229.60934169 -.00000085  00000+0  67451-4 0  9996
2 31573  52.0051  31.3619 0000603 219.1209 219.1980 12.23460876841642
GLOBALSTAR M072         
1 31574U 07020D   25229.60244884 -.00000073  00000+0  15721-3 0  9994
2 31574  51.9911 188.4671 0001246  69.9731 102.0037 11.91651111838785
GLOBALSTAR M071         
1 31576U 07020F   25229.57601749 -.00000031  00000+0  58933-3 0  9995
2 31576  52.0065  58.8071 0000414 144.3953 253.4558 12.18257236502421
